ONEWEB-0584             
1 54651U 22166K   24055.52544050  .00000018  00000+0  11740-4 0  9994
2 54651  87.9217  51.8925 0002132  97.7689 262.3687 13.21825776 60069
ONEWEB-0585             
1 54652U 22166L   24055.55067212  .00000050  00000+0  90449-4 0  9997
2 54652  87.9219  51.8933 0002100  82.9549 277.1824 13.21826990 60074
ONEWEB-0587             
1 54654U 22166N   24055.49704025  .00000017  00000+0  91705-5 0  9992
2 54654  87.9212  51.8834 0001783  77.7511 282.3822 13.21825635 60224
ONEWEB-0590             
1 54656U 22166Q   24055.50808959  .00000061  00000+0  11674-3 0  9991
2 54656  87.9218  51.9109 0001659  86.1880 273.9444 13.21824820 60077
ONEWEB-0592             
1 54658U 22166S   24055.52385525  .00000034  00000+0  49974-4 0  9999
2 54658  87.9211  51.8784 0001942  97.1108 263.0247 13.21827258 59987
